$$SOE
2460728.500000000, A.D. 2025-Feb-22 00:00:00.0000, -3.683756869914485E+08, 5.634519796118445E+08, 2.493079955731389E+07,
2460735.500000000, A.D. 2025-Mar-01 00:00:00.0000, -3.755178731054033E+08, 5.602958806933786E+08, 2.478536915786287E+07,
2460742.500000000, A.D. 2025-Mar-08 00:00:00.0000, -3.826006090872695E+08, 5.570513025585908E+08, 2.463601508267659E+07,
2460749.500000000, A.D. 2025-Mar-15 00:00:00.0000, -3.896231173590176E+08, 5.537192612506843E+08, 2.448278290921852E+07,
2460756.500000000, A.D. 2025-Mar-22 00:00:00.0000, -3.965846358419898E+08, 5.503007717019657E+08, 2.432571830906183E+07,
2460763.500000000, A.D. 2025-Mar-29 00:00:00.0000, -4.034844184726071E+08, 5.467968458745639E+08, 2.416486698204610E+07,
2460770.500000000, A.D. 2025-Apr-05 00:00:00.0000, -4.103217340317248E+08, 5.432084917913141E+08, 2.400027450834998E+07,
2460777.500000000, A.D. 2025-Apr-12 00:00:00.0000, -4.170958652136666E+08, 5.395367135611461E+08, 2.383198630330071E+07,
2460784.500000000, A.D. 2025-Apr-19 00:00:00.0000, -4.238061081218031E+08, 5.357825115178577E+08, 2.366004761974761E+07,
2460791.500000000, A.D. 2025-Apr-26 00:00:00.0000, -4.304517719186529E+08, 5.319468822692272E+08, 2.348450355620494E+07,
2460798.500000000, A.D. 2025-May-03 00:00:00.0000, -4.370321785165734E+08, 5.280308186756065E+08, 2.330539906166625E+07,
2460805.500000000, A.D. 2025-May-10 00:00:00.0000, -4.435466622802662E+08, 5.240353097666466E+08, 2.312277893498090E+07,
2460812.500000000, A.D. 2025-May-17 00:00:00.0000, -4.499945697042004E+08, 5.199613405551066E+08, 2.293668781192541E+07,
2460819.500000000, A.D. 2025-May-24 00:00:00.0000, -4.563752588908812E+08, 5.158098916932455E+08, 2.274717011946592E+07,
2460826.500000000, A.D. 2025-May-31 00:00:00.0000, -4.626880984120585E+08, 5.115819392826993E+08, 2.255426998424658E+07,
2460833.500000000, A.D. 2025-Jun-07 00:00:00.0000, -4.689324659538420E+08, 5.072784560426093E+08, 2.235803123050761E+07,
2460840.500000000, A.D. 2025-Jun-14 00:00:00.0000, -4.751077491103523E+08, 5.029004131694077E+08, 2.215849762980008E+07,
2460847.500000000, A.D. 2025-Jun-21 00:00:00.0000, -4.812133471087541E+08, 4.984487796170656E+08, 2.195571302356067E+07,
2460854.500000000, A.D. 2025-Jun-28 00:00:00.0000, -4.872486703370063E+08, 4.939245205620361E+08, 2.174972117588547E+07,
2460861.500000000, A.D. 2025-Jul-05 00:00:00.0000, -4.932131391912172E+08, 4.893285972091470E+08, 2.154056567189258E+07,
2460868.500000000, A.D. 2025-Jul-12 00:00:00.0000, -4.991061834337447E+08, 4.846619671333618E+08, 2.132828990513745E+07,
2460875.500000000, A.D. 2025-Jul-19 00:00:00.0000, -5.049272418723032E+08, 4.799255845824713E+08, 2.111293708975530E+07,
2460882.500000000, A.D. 2025-Jul-26 00:00:00.0000, -5.106757621499633E+08, 4.751204006841282E+08, 2.089455027353746E+07,
2460889.500000000, A.D. 2025-Aug-02 00:00:00.0000, -5.163512005805235E+08, 4.702473635788668E+08, 2.067317234781754E+07,
2460896.500000000, A.D. 2025-Aug-09 00:00:00.0000, -5.219530220057458E+08, 4.653074184645453E+08, 2.044884605096364E+07,
2460903.500000000, A.D. 2025-Aug-16 00:00:00.0000, -5.274806995974208E+08, 4.603015074891261E+08, 2.022161395342356E+07,
2460910.500000000, A.D. 2025-Aug-23 00:00:00.0000, -5.329337143115470E+08, 4.552305695084173E+08, 1.999151839903748E+07,
2460917.500000000, A.D. 2025-Aug-30 00:00:00.0000, -5.383115536656504E+08, 4.500955404229032E+08, 1.975860143103021E+07,
2460924.500000000, A.D. 2025-Sep-06 00:00:00.0000, -5.436137112575119E+08, 4.448973550940875E+08, 1.952290491473961E+07,
2460931.500000000, A.D. 2025-Sep-13 00:00:00.0000, -5.488396886961623E+08, 4.396369483579066E+08, 1.928447080765155E+07,
2460938.500000000, A.D. 2025-Sep-20 00:00:00.0000, -5.539889966714455E+08, 4.343152534910080E+08, 1.904334114238334E+07,
2460945.500000000, A.D. 2025-Sep-27 00:00:00.0000, -5.590611541031837E+08, 4.289332012412092E+08, 1.879955788003847E+07,
2460952.500000000, A.D. 2025-Oct-04 00:00:00.0000, -5.640556873866849E+08, 4.234917199613928E+08, 1.855316286312902E+07,
2460959.500000000, A.D. 2025-Oct-11 00:00:00.0000, -5.689721301081135E+08, 4.179917359040853E+08, 1.830419782536224E+07,
2460966.500000000, A.D. 2025-Oct-18 00:00:00.0000, -5.738100229457333E+08, 4.124341734024135E+08, 1.805270440988594E+07,
2460973.500000000, A.D. 2025-Oct-25 00:00:00.0000, -5.785689136172560E+08, 4.068199549484645E+08, 1.779872418406415E+07,
2460980.500000000, A.D. 2025-Nov-01 00:00:00.0000, -5.832483568338611E+08, 4.011500011846491E+08, 1.754229864833838E+07,
2460987.500000000, A.D. 2025-Nov-08 00:00:00.0000, -5.878479142264925E+08, 3.954252307769530E+08, 1.728346923328826E+07,
2460994.500000000, A.D. 2025-Nov-15 00:00:00.0000, -5.923671540967761E+08, 3.896465601119840E+08, 1.702227726635033E+07,
2461001.500000000, A.D. 2025-Nov-22 00:00:00.0000, -5.968056505899997E+08, 3.838149030384385E+08, 1.675876388903239E+07,
2461008.500000000, A.D. 2025-Nov-29 00:00:00.0000, -6.011629824434673E+08, 3.779311717884610E+08, 1.649297003120828E+07,
2461015.500000000, A.D. 2025-Dec-06 00:00:00.0000, -6.054387335878749E+08, 3.719962789434191E+08, 1.622493664005059E+07,
2461022.500000000, A.D. 2025-Dec-13 00:00:00.0000, -6.096324951680603E+08, 3.660111370744507E+08, 1.595470484821634E+07,
2461029.500000000, A.D. 2025-Dec-20 00:00:00.0000, -6.137438654894276E+08, 3.599766570812442E+08, 1.568231584440446E+07,
2461036.500000000, A.D. 2025-Dec-27 00:00:00.0000, -6.177724489636114E+08, 3.538937478203931E+08, 1.540781075648163E+07,
2461043.500000000, A.D. 2026-Jan-03 00:00:00.0000, -6.217178555127872E+08, 3.477633164082261E+08, 1.513123063067712E+07,
2461050.500000000, A.D. 2026-Jan-10 00:00:00.0000, -6.255797003229113E+08, 3.415862685200107E+08, 1.485261644132194E+07,
2461057.500000000, A.D. 2026-Jan-17 00:00:00.0000, -6.293576037132056E+08, 3.353635085948061E+08, 1.457200910238405E+07,
2461064.500000000, A.D. 2026-Jan-24 00:00:00.0000, -6.330511910438225E+08, 3.290959399694942E+08, 1.428944947560182E+07,
2461071.500000000, A.D. 2026-Jan-31 00:00:00.0000, -6.366600926381072E+08, 3.227844649354696E+08, 1.400497837256296E+07,
2461078.500000000, A.D. 2026-Feb-07 00:00:00.0000, -6.401839436578264E+08, 3.164299846615385E+08, 1.371863654051273E+07,
2461085.500000000, A.D. 2026-Feb-14 00:00:00.0000, -6.436223836781541E+08, 3.100333989685667E+08, 1.343046460753858E+07,
2461092.500000000, A.D. 2026-Feb-21 00:00:00.0000, -6.469750555746814E+08, 3.035956065335875E+08, 1.314050299884526E+07,
2461099.500000000, A.D. 2026-Feb-28 00:00:00.0000, -6.502416048072624E+08, 2.971175066772960E+08, 1.284879201797122E+07,
2461106.500000000, A.D. 2026-Mar-07 00:00:00.0000, -6.534216811594552E+08, 2.906000007853264E+08, 1.255537212245762E+07,
2461113.500000000, A.D. 2026-Mar-14 00:00:00.0000, -6.565149401578057E+08, 2.840439910309162E+08, 1.226028394883589E+07,
2461120.500000000, A.D. 2026-Mar-21 00:00:00.0000, -6.595210423876810E+08, 2.774503792968512E+08, 1.196356816036752E+07,
2461127.500000000, A.D. 2026-Mar-28 00:00:00.0000, -6.624396527150682E+08, 2.708200673250473E+08, 1.166526538602948E+07,
2461134.500000000, A.D. 2026-Apr-04 00:00:00.0000, -6.652704400184011E+08, 2.641539571281216E+08, 1.136541622734235E+07,
2461141.500000000, A.D. 2026-Apr-11 00:00:00.0000, -6.680130771566631E+08, 2.574529513031235E+08, 1.106406127868518E+07,
2461148.500000000, A.D. 2026-Apr-18 00:00:00.0000, -6.706672410144260E+08, 2.507179532408218E+08, 1.076124114614306E+07,
2461155.500000000, A.D. 2026-Apr-25 00:00:00.0000, -6.732326125777903E+08, 2.439498672453033E+08, 1.045699646209329E+07,
2461162.500000000, A.D. 2026-May-02 00:00:00.0000, -6.757088770102303E+08, 2.371495985343275E+08, 1.015136789048435E+07,
2461169.500000000, A.D. 2026-May-09 00:00:00.0000, -6.780957236033642E+08, 2.303180530543051E+08, 9.844396106132731E+06,
2461176.500000000, A.D. 2026-May-16 00:00:00.0000, -6.803928452242601E+08, 2.234561372483494E+08, 9.536121724803776E+06,
2461183.500000000, A.D. 2026-May-23 00:00:00.0000, -6.825999372070156E+08, 2.165647587998419E+08, 9.226585262946084E+06,
2461190.500000000, A.D. 2026-May-30 00:00:00.0000, -6.847166977668093E+08, 2.096448286710772E+08, 8.915827343822941E+06,
2461197.500000000, A.D. 2026-Jun-06 00:00:00.0000, -6.867428302536925E+08, 2.026972611635948E+08, 8.603888911535412E+06,
2461204.500000000, A.D. 2026-Jun-13 00:00:00.0000, -6.886780435797378E+08, 1.957229721992947E+08, 8.290811132851288E+06,
2461211.500000000, A.D. 2026-Jun-20 00:00:00.0000, -6.905220513200208E+08, 1.887228787481727E+08, 7.976635271753684E+06,
2461218.500000000, A.D. 2026-Jun-27 00:00:00.0000, -6.922745711858703E+08, 1.816978990624169E+08, 7.661402664453551E+06,
2461225.500000000, A.D. 2026-Jul-04 00:00:00.0000, -6.939353248708922E+08, 1.746489529419086E+08, 7.345154731256187E+06,
2461232.500000000, A.D. 2026-Jul-11 00:00:00.0000, -6.955040380161761E+08, 1.675769618993601E+08, 7.027932990927406E+06,
2461239.500000000, A.D. 2026-Jul-18 00:00:00.0000, -6.969804402021757E+08, 1.604828492510335E+08, 6.709779070890538E+06,
2461246.500000000, A.D. 2026-Jul-25 00:00:00.0000, -6.983642649429352E+08, 1.533675401359743E+08, 6.390734711002596E+06,
2461253.500000000, A.D. 2026-Aug-01 00:00:00.0000, -6.996552496346062E+08, 1.462319614158381E+08, 6.070841752372481E+06,
2461260.500000000, A.D. 2026-Aug-08 00:00:00.0000, -7.008531352433606E+08, 1.390770414196016E+08, 5.750142088438623E+06,
2461267.500000000, A.D. 2026-Aug-15 00:00:00.0000, -7.019576653176118E+08, 1.319037099836883E+08, 5.428677576955102E+06,
2461274.500000000, A.D. 2026-Aug-22 00:00:00.0000, -7.029685850855919E+08, 1.247129000088685E+08, 5.106490082441583E+06,
2461281.500000000, A.D. 2026-Aug-29 00:00:00.0000, -7.038856429276658E+08, 1.175055491612716E+08, 4.783621746821336E+06,
2461288.500000000, A.D. 2026-Sep-05 00:00:00.0000, -7.047085920901475E+08, 1.102825988497031E+08, 4.460115058154218E+06,
2461295.500000000, A.D. 2026-Sep-12 00:00:00.0000, -7.054371901855198E+08, 1.030449929752609E+08, 4.136012696306728E+06,
$$EOE